[{"OBJECT_NAME":"STARLINK-35472","OBJECT_ID":"2025-225D","EPOCH":"2026-03-09T17:39:31.610592","MEAN_MOTION":15.30201345,"ECCENTRICITY":0.00013438,"INCLINATION":53.1582,"RA_OF_ASC_NODE":165.5738,"ARG_OF_PERICENTER":93.6495,"MEAN_ANOMALY":266.4659,"EPHEMERIS_TYPE":0,"CLASSIFICATION_TYPE":"U","NORAD_CAT_ID":65913,"ELEMENT_SET_NO":999,"REV_AT_EPOCH":2441,"BSTAR":0.0015029167,"MEAN_MOTION_DOT":0.00044421,"MEAN_MOTION_DDOT":0},{"OBJECT_NAME":"FREGAT DEB","OBJECT_ID":"2011-037AQ","EPOCH":"2026-03-09T17:13:36.244704","MEAN_MOTION":13.70998732,"ECCENTRICITY":0.08942327,"INCLINATION":51.3938,"RA_OF_ASC_NODE":234.2941,"ARG_OF_PERICENTER":107.0507,"MEAN_ANOMALY":263.0252,"EPHEMERIS_TYPE":0,"CLASSIFICATION_TYPE":"U","NORAD_CAT_ID":45648,"ELEMENT_SET_NO":999,"REV_AT_EPOCH":25644,"BSTAR":0.0068744394,"MEAN_MOTION_DOT":0.00162372,"MEAN_MOTION_DDOT":0}]
